{
"type": "FeatureCollection",
"name": "Ruta Completa",
"crs": { "type": "name", "properties": { "name": "urn:ogc:def:crs:OGC:1.3:CRS84" } },
"features": [
{"type":"Feature","properties":{"fid":1,"Nombre":"1"},"geometry":{"type":"LineString","coordinates":[[-105.94538581671911,28.663142005204328],[-105.945707573482267,28.663206413164303],[-105.946195789593204,28.663314013220965],[-105.946484722768645,28.662093638081785],[-105.946958045695922,28.662178499616672],[-105.946704890557371,28.663334501553702],[-105.947141726172987,28.663403586417861],[-105.947404396237417,28.66229561018142],[-105.947859330091319,28.662356550688617],[-105.947615127575588,28.663496460482055],[-105.948088385498224,28.663573302886466],[-105.948350901618412,28.662449295080247],[-105.948824371831407,28.662550179997034],[-105.948598714804305,28.663730038904102],[-105.948599292188135,28.663794158827823],[-105.948932210505959,28.663863601740012],[-105.948664959285836,28.66506173142518],[-105.948243667195257,28.664968981660905],[-105.948524485142215,28.66377075768856],[-105.948055784826494,28.663684320584146],[-105.947768288213268,28.664894553000959],[-105.947319873000609,28.664801990169487],[-105.947586977635552,28.663585920015688],[-105.947132002219618,28.663517327507471],[-105.946837714209295,28.664727605646274],[-105.946382626785663,28.664647048911533],[-105.9466633040348,28.663430885526246],[-105.94617431718973,28.663350564957661],[-105.945920651488464,28.664554576172389],[-105.945445222101682,28.664474158355173],[-105.945685169968741,28.663252299860353],[-105.945298114631683,28.663195189388404],[-105.945050952006667,28.664369247315992],[-105.945050952006667,28.664369247315992]]}},
{"type":"Feature","properties":{"fid":2,"Nombre":"2"},"geometry":{"type":"LineString","coordinates":[[-105.944748447933293,28.664308439797232],[-105.945025061001402,28.663127619851306],[-105.944604717821903,28.663062352339811],[-105.944306620107639,28.664311521575538],[-105.943864006596144,28.664226921360175],[-105.944140018265315,28.662977906986999],[-105.943642095492891,28.662883948645018],[-105.943377211027425,28.664142627488289],[-105.942901549062583,28.664067997222837],[-105.943177310178001,28.662789757662107],[-105.942690608937454,28.662715203424515],[-105.942425451940139,28.663944653829294],[-105.941982754189794,28.663850305098968],[-105.942258787429196,28.66260129399296],[-105.942535163180466,28.66139125141617],[-105.942999767377955,28.661465960200292],[-105.942722960925266,28.662627292146095],[-105.943198616245894,28.66270192320993],[-105.943464546675827,28.66156015195137],[-105.943929239472126,28.661644599799118],[-105.943674272191785,28.662776552586244],[-105.944105659279089,28.662841746023179],[-105.944349401959855,28.661690384991637],[-105.944473085044905,28.661933094814678],[-105.944485789951273,28.662118121196983],[-105.944697401001719,28.662311503041117],[-105.944592711368202,28.662955264269836],[-105.945024361851452,28.663049681594885],[-105.945237143767372,28.662142107536496],[-105.945147643817577,28.662016074602811],[-105.945091804779395,28.661948264054431],[-105.945024570817168,28.661841561424911],[-105.945024570817168,28.661841561424911],[-105.945024570817168,28.661841561424911],[-105.945024570817168,28.661841561424911],[-105.945024570817168,28.661841561424911]]}},
{"type":"Feature","properties":{"fid":3,"Nombre":"3"},"geometry":{"type":"LineString","coordinates":[[-105.945121410441075,28.661557110723233],[-105.945424319391151,28.661364465793351],[-105.945583328075756,28.660567035461366],[-105.944717925259241,28.660416742358219],[-105.944488924160538,28.661439388377616],[-105.944039735320004,28.661379010217708],[-105.944268521778611,28.660331939370092],[-105.943780349801372,28.66024740505717],[-105.943529317087709,28.661284859363686],[-105.943118723986416,28.661204667610413],[-105.943310149764713,28.660314191251395],[-105.943384713808925,28.659981464520889],[-105.943740205506259,28.659475791305027],[-105.943912115137081,28.659499020254078],[-105.94378501306872,28.660149664525544],[-105.944234240305775,28.660214928763676],[-105.944539972239411,28.658910083457158],[-105.94501139191415,28.658980075830062],[-105.944702166898637,28.66032083316459],[-105.945157021450768,28.66039582586389],[-105.945482768331217,28.65904518145123],[-105.945910145147948,28.659144790547593],[-105.945623041221481,28.660480509862293],[-105.945623041221481,28.660480509862293]]}},
{"type":"Feature","properties":{"fid":4,"Nombre":"4"},"geometry":{"type":"LineString","coordinates":[[-105.945953222731688,28.660576945423941],[-105.946327975519111,28.66063209583233],[-105.946507679180954,28.659805574518479],[-105.946633544319269,28.659235261574519],[-105.947130139665276,28.659314316096122],[-105.946787153850678,28.660711412948721],[-105.946356191324298,28.660648403971869],[-105.946256982714587,28.661061729915424],[-105.946230619679667,28.6612517251593],[-105.946523989057098,28.661621044412499],[-105.94657277062781,28.661843525074357],[-105.947003812351539,28.661914785366157],[-105.94725613385755,28.660840175853917],[-105.947570675479753,28.659402013684801],[-105.948038982222414,28.659456504812063],[-105.947481782900269,28.66200222124715],[-105.947945597165486,28.662080270095469],[-105.948525840252557,28.6595784510145],[-105.948981622723721,28.659675569513606],[-105.948378645539464,28.662177549555683],[-105.949366139660313,28.662311343661855],[-105.949349082804872,28.662109822813704],[-105.949087945907124,28.661883127388716],[-105.949825610401788,28.660869753387637],[-105.949306006561926,28.660712084342467],[-105.949394295469375,28.660361955276393],[-105.949466738567267,28.659944723743777],[-105.950183968783591,28.660047235019611],[-105.949825489219407,28.660856311541036],[-105.950146977915878,28.661015368696397],[-105.950974850504224,28.659866928696893],[-105.952608279015408,28.66016463084793],[-105.952762619908526,28.660378628173714],[-105.952508285529959,28.660904682206727],[-105.951980361239606,28.661513315430277],[-105.951689590769149,28.661380932225555],[-105.952367604450856,28.66051583355932],[-105.952366875422769,28.660435182534744],[-105.950978732914649,28.660297067693701],[-105.950799132571731,28.660661281514518],[-105.952019643041467,28.66080057664654],[-105.951824636378774,28.661146147920704],[-105.950550539635302,28.660987702897447],[-105.950279637898561,28.661432288797577],[-105.951411885065397,28.661636671437616],[-105.951163533862172,28.661952298777699],[-105.950052382296036,28.661766229820262],[-105.94988850441932,28.662164348867261],[-105.950936779985184,28.662341628784386],[-105.951630587820958,28.661515120767579],[-105.951819977024243,28.661624571928641],[-105.952430845772184,28.662044941901932],[-105.953062177865803,28.661255793492369],[-105.95321858310389,28.661190069771532],[-105.953400013431178,28.661576530038516],[-105.952778563765364,28.662300987544324],[-105.952323396068195,28.66289502719296],[-105.952837239679525,28.663002194760391],[-105.953654373306733,28.661925549090256],[-105.953865115316631,28.662081006176358],[-105.953951435145456,28.662366585233965],[-105.953319351606183,28.663072656381122],[-105.953967418291057,28.662975774157715],[-105.954174484011119,28.662725055611787],[-105.954143252819975,28.662743739346976]]}}
]
}
